{
  "type": "FeatureCollection",
  "features": [
    {
      "type": "Feature",
      "properties": {
        "norad_id": 35837,
        "name": "COSMOS 2251 DEB",
        "group": "cosmos-2251-debris",
        "lat": 8.677399540912049,
        "lon": -165.62566715610802,
        "alt_km": 1076.3523812091817,
        "timestamp": "2025-12-22T05:49:03.898024+00:00",
        "meta_object_name": "COSMOS 2251 DEB",
        "meta_object_id": "1993-036ATK",
        "meta_epoch": "2025-12-20T04:59:29.154912",
        "meta_mean_motion": 13.63523619,
        "meta_eccentricity": 0.04220249,
        "meta_inclination": 73.7219,
        "meta_ra_of_asc_node": 195.2026,
        "meta_arg_of_pericenter": 114.812,
        "meta_mean_anomaly": 356.3531,
        "meta_ephemeris_type": 0,
        "meta_classification_type": "U",
        "meta_norad_cat_id": 35837,
        "meta_element_set_no": 999,
        "meta_rev_at_epoch": 58078,
        "meta_bstar": 0.0020383632,
        "meta_mean_motion_dot": 2.925e-05,
        "meta_mean_motion_ddot": 0,
        "tle_line1": "1 35837U 93036ATK 25354.20797633  .00002925  00000+0  20384-2 0  9999",
        "tle_line2": "2 35837  73.7219 195.2026 0422024 114.8120 356.3531 13.63523619580786"
      },
      "geometry": {
        "type": "Point",
        "coordinates": [
          -165.62566715610802,
          8.677399540912049
        ]
      }
    },
    {
      "type": "Feature",
      "properties": {
        "norad_id": 35839,
        "name": "COSMOS 2251 DEB",
        "group": "cosmos-2251-debris",
        "lat": 55.85860394070294,
        "lon": 98.02553917751649,
        "alt_km": 380.3848179129991,
        "timestamp": "2025-12-22T05:49:03.898034+00:00",
        "meta_object_name": "COSMOS 2251 DEB",
        "meta_object_id": "1993-036ATM",
        "meta_epoch": "2025-12-21T13:53:55.188672",
        "meta_mean_motion": 15.58482326,
        "meta_eccentricity": 0.0006636,
        "meta_inclination": 74.2033,
        "meta_ra_of_asc_node": 304.1615,
        "meta_arg_of_pericenter": 138.8286,
        "meta_mean_anomaly": 221.3434,
        "meta_ephemeris_type": 0,
        "meta_classification_type": "U",
        "meta_norad_cat_id": 35839,
        "meta_element_set_no": 999,
        "meta_rev_at_epoch": 88705,
        "meta_bstar": 0.0057769,
        "meta_mean_motion_dot": 0.0046777,
        "meta_mean_motion_ddot": 0,
        "tle_line1": "1 35839U 93036ATM 25355.57911098  .00467770  00000+0  57769-2 0  9995",
        "tle_line2": "2 35839  74.2033 304.1615 0006636 138.8286 221.3434 15.58482326887057"
      },
      "geometry": {
        "type": "Point",
        "coordinates": [
          98.02553917751649,
          55.85860394070294
        ]
      }
    },
    {
      "type": "Feature",
      "properties": {
        "norad_id": 35840,
        "name": "COSMOS 2251 DEB",
        "group": "cosmos-2251-debris",
        "lat": -20.13851995806965,
        "lon": -33.362579042725024,
        "alt_km": 847.7232342292027,
        "timestamp": "2025-12-22T05:49:03.898044+00:00",
        "meta_object_name": "COSMOS 2251 DEB",
        "meta_object_id": "1993-036ATN",
        "meta_epoch": "2025-12-12T04:26:56.474304",
        "meta_mean_motion": 14.37821687,
        "meta_eccentricity": 0.01162768,
        "meta_inclination": 73.9307,
        "meta_ra_of_asc_node": 159.2062,
        "meta_arg_of_pericenter": 61.7798,
        "meta_mean_anomaly": 299.5037,
        "meta_ephemeris_type": 0,
        "meta_classification_type": "U",
        "meta_norad_cat_id": 35840,
        "meta_element_set_no": 999,
        "meta_rev_at_epoch": 85283,
        "meta_bstar": 0.0026691111,
        "meta_mean_motion_dot": 8.683e-05,
        "meta_mean_motion_ddot": 0,
        "tle_line1": "1 35840U 93036ATN 25346.18537586  .00008683  00000+0  26691-2 0  9994",
        "tle_line2": "2 35840  73.9307 159.2062 0116276  61.7798 299.5037 14.37821687852835"
      },
      "geometry": {
        "type": "Point",
        "coordinates": [
          -33.362579042725024,
          -20.13851995806965
        ]
      }
    },
    {
      "type": "Feature",
      "properties": {
        "norad_id": 35883,
        "name": "COSMOS 2251 DEB",
        "group": "cosmos-2251-debris",
        "lat": -73.1751841516918,
        "lon": -19.162004382831725,
        "alt_km": 736.3311132618146,
        "timestamp": "2025-12-22T05:49:03.898054+00:00",
        "meta_object_name": "COSMOS 2251 DEB",
        "meta_object_id": "1993-036ATW",
        "meta_epoch": "2025-12-16T04:41:35.789568",
        "meta_mean_motion": 14.50615193,
        "meta_eccentricity": 0.00835028,
        "meta_inclination": 74.0253,
        "meta_ra_of_asc_node": 63.5249,
        "meta_arg_of_pericenter": 192.1269,
        "meta_mean_anomaly": 197.0315,
        "meta_ephemeris_type": 0,
        "meta_classification_type": "U",
        "meta_norad_cat_id": 35883,
        "meta_element_set_no": 999,
        "meta_rev_at_epoch": 62436,
        "meta_bstar": 0.00022216854,
        "meta_mean_motion_dot": 8.82e-06,
        "meta_mean_motion_ddot": 0,
        "tle_line1": "1 35883U 93036ATW 25350.19555312  .00000882  00000+0  22217-3 0  9998",
        "tle_line2": "2 35883  74.0253  63.5249 0083502 192.1269 197.0315 14.50615193624369"
      },
      "geometry": {
        "type": "Point",
        "coordinates": [
          -19.162004382831725,
          -73.1751841516918
        ]
      }
    },
    {
      "type": "Feature",
      "properties": {
        "norad_id": 35884,
        "name": "COSMOS 2251 DEB",
        "group": "cosmos-2251-debris",
        "lat": -42.05646532992911,
        "lon": 153.81825531754313,
        "alt_km": 851.436707989631,
        "timestamp": "2025-12-22T05:49:03.898064+00:00",
        "meta_object_name": "COSMOS 2251 DEB",
        "meta_object_id": "1993-036ATX",
        "meta_epoch": "2025-12-16T07:19:09.379488",
        "meta_mean_motion": 14.25680751,
        "meta_eccentricity": 0.01084022,
        "meta_inclination": 73.9902,
        "meta_ra_of_asc_node": 329.5521,
        "meta_arg_of_pericenter": 115.5254,
        "meta_mean_anomaly": 245.7151,
        "meta_ephemeris_type": 0,
        "meta_classification_type": "U",
        "meta_norad_cat_id": 35884,
        "meta_element_set_no": 999,
        "meta_rev_at_epoch": 22408,
        "meta_bstar": 0.00087030299,
        "meta_mean_motion_dot": 2.171e-05,
        "meta_mean_motion_ddot": 0,
        "tle_line1": "1 35884U 93036ATX 25350.30496967  .00002171  00000+0  87030-3 0  9999",
        "tle_line2": "2 35884  73.9902 329.5521 0108402 115.5254 245.7151 14.25680751224085"
      },
      "geometry": {
        "type": "Point",
        "coordinates": [
          153.81825531754313,
          -42.05646532992911
        ]
      }
    },
    {
      "type": "Feature",
      "properties": {
        "norad_id": 35885,
        "name": "COSMOS 2251 DEB",
        "group": "cosmos-2251-debris",
        "lat": 54.8154030321292,
        "lon": -58.732415163540146,
        "alt_km": 753.2992976359365,
        "timestamp": "2025-12-22T05:49:03.898075+00:00",
        "meta_object_name": "COSMOS 2251 DEB",
        "meta_object_id": "1993-036ATY",
        "meta_epoch": "2025-12-20T03:26:35.075328",
        "meta_mean_motion": 14.37533369,
        "meta_eccentricity": 0.00236117,
        "meta_inclination": 74.0287,
        "meta_ra_of_asc_node": 281.1634,
        "meta_arg_of_pericenter": 0.0497,
        "meta_mean_anomaly": 0.0654,
        "meta_ephemeris_type": 0,
        "meta_classification_type": "U",
        "meta_norad_cat_id": 35885,
        "meta_element_set_no": 999,
        "meta_rev_at_epoch": 65122,
        "meta_bstar": 0.00021713075,
        "meta_mean_motion_dot": 6.26e-06,
        "meta_mean_motion_ddot": 0,
        "tle_line1": "1 35885U 93036ATY 25354.14346152  .00000626  00000+0  21713-3 0  9995",
        "tle_line2": "2 35885  74.0287 281.1634 0023611   0.0497   0.0654 14.37533369651222"
      },
      "geometry": {
        "type": "Point",
        "coordinates": [
          -58.732415163540146,
          54.8154030321292
        ]
      }
    },
    {
      "type": "Feature",
      "properties": {
        "norad_id": 35888,
        "name": "COSMOS 2251 DEB",
        "group": "cosmos-2251-debris",
        "lat": 2.282043101050031,
        "lon": -20.765634151309794,
        "alt_km": 709.6999918928423,
        "timestamp": "2025-12-22T05:49:03.898085+00:00",
        "meta_object_name": "COSMOS 2251 DEB",
        "meta_object_id": "1993-036AUB",
        "meta_epoch": "2025-12-19T16:53:26.890080",
        "meta_mean_motion": 14.58341015,
        "meta_eccentricity": 0.00479832,
        "meta_inclination": 74.0337,
        "meta_ra_of_asc_node": 343.4108,
        "meta_arg_of_pericenter": 113.3266,
        "meta_mean_anomaly": 247.2958,
        "meta_ephemeris_type": 0,
        "meta_classification_type": "U",
        "meta_norad_cat_id": 35888,
        "meta_element_set_no": 999,
        "meta_rev_at_epoch": 86375,
        "meta_bstar": 0.00026393359,
        "meta_mean_motion_dot": 1.211e-05,
        "meta_mean_motion_ddot": 0,
        "tle_line1": "1 35888U 93036AUB 25353.70378345  .00001211  00000+0  26393-3 0  9998",
        "tle_line2": "2 35888  74.0337 343.4108 0047983 113.3266 247.2958 14.58341015863752"
      },
      "geometry": {
        "type": "Point",
        "coordinates": [
          -20.765634151309794,
          2.282043101050031
        ]
      }
    }
  ]
}